ONEWEB-0228             
1 48780U 21045P   24245.15333234  .00000145  00000+0  35147-3 0  9992
2 48780  87.9063  29.3251 0001651  98.1879 261.9439 13.15547553159467
